{
  "norad_id": 62183,
  "name": "STARLINK-32589",
  "history": [
    {
      "epoch": "2026-03-28T19:23:22.771680Z",
      "apogee_km": 574.4272330520253,
      "perigee_km": 569.6393997244732,
      "latitude_deg": 4.590502330160574e-05,
      "longitude_deg": -0.6089062665789923,
      "height_km": 574.3855033924673,
      "semi_major_axis_km": 6950.170316388249,
      "eccentricity": 0.00034444,
      "inclination_deg": 70.0018,
      "raan_deg": 116.459,
      "arg_perigee_deg": 271.8148,
      "mean_anomaly_deg": 88.2617,
      "mean_motion_rev_day": 14.983373
    },
    {
      "epoch": "2026-03-29T05:00:11.043360Z",
      "apogee_km": 574.6840639067368,
      "perigee_km": 569.3810845216112,
      "latitude_deg": 1.0069771246906391e-05,
      "longitude_deg": -146.21435987620922,
      "height_km": 574.4224326237824,
      "semi_major_axis_km": 6950.169574214174,
      "eccentricity": 0.0003815,
      "inclination_deg": 70.0004,
      "raan_deg": 115.4495,
      "arg_perigee_deg": 270.8295,
      "mean_anomaly_deg": 89.2427,
      "mean_motion_rev_day": 14.9833754
    },
    {
      "epoch": "2026-03-30T01:49:55.770816Z",
      "apogee_km": 574.6473249311584,
      "perigee_km": 569.411069718094,
      "latitude_deg": -3.437118975260368e-05,
      "longitude_deg": -101.69516024177925,
      "height_km": 574.4418060045042,
      "semi_major_axis_km": 6950.166197324626,
      "eccentricity": 0.0003767,
      "inclination_deg": 70.0007,
      "raan_deg": 113.2605,
      "arg_perigee_deg": 270.3419,
      "mean_anomaly_deg": 89.7308,
      "mean_motion_rev_day": 14.98338632
    },
    {
      "epoch": "2026-03-30T05:02:11.818464Z",
      "apogee_km": 574.5644948280205,
      "perigee_km": 569.4546080804603,
      "latitude_deg": 2.12145230759084e-05,
      "longitude_deg": -150.23000756743681,
      "height_km": 574.4233625339976,
      "semi_major_axis_km": 6950.14655145424,
      "eccentricity": 0.00036761,
      "inclination_deg": 69.9998,
      "raan_deg": 112.9241,
      "arg_perigee_deg": 270.3202,
      "mean_anomaly_deg": 89.7536,
      "mean_motion_rev_day": 14.98344985
    },
    {
      "epoch": "2026-03-30T11:26:44.202336Z",
      "apogee_km": 574.426173410714,
      "perigee_km": 569.6126340886049,
      "latitude_deg": -2.915299371182675e-05,
      "longitude_deg": 112.69853361642964,
      "height_km": 574.3912837018379,
      "semi_major_axis_km": 6950.156403749659,
      "eccentricity": 0.00034629,
      "inclination_deg": 70.0014,
      "raan_deg": 112.2508,
      "arg_perigee_deg": 271.3362,
      "mean_anomaly_deg": 88.74,
      "mean_motion_rev_day": 14.98341799
    },
    {
      "epoch": "2026-03-31T17:53:17.305152Z",
      "apogee_km": 574.673131347422,
      "perigee_km": 569.4035084198867,
      "latitude_deg": -8.367682354164904e-05,
      "longitude_deg": 11.611556907589609,
      "height_km": 574.36838458409,
      "semi_major_axis_km": 6950.175319883654,
      "eccentricity": 0.0003791,
      "inclination_deg": 70.0004,
      "raan_deg": 109.052,
      "arg_perigee_deg": 272.1349,
      "mean_anomaly_deg": 87.9375,
      "mean_motion_rev_day": 14.98335682
    },
    {
      "epoch": "2026-04-01T09:54:37.954656Z",
      "apogee_km": 574.6812375861082,
      "perigee_km": 569.4213350910068,
      "latitude_deg": 2.6373992709473072e-05,
      "longitude_deg": 128.93434131520905,
      "height_km": 574.375146454064,
      "semi_major_axis_km": 6950.188286338557,
      "eccentricity": 0.0003784,
      "inclination_deg": 70.0001,
      "raan_deg": 107.3688,
      "arg_perigee_deg": 272.2732,
      "mean_anomaly_deg": 87.7994,
      "mean_motion_rev_day": 14.98331489
    },
    {
      "epoch": "2026-04-02T17:57:20.147040Z",
      "apogee_km": 574.5147730516792,
      "perigee_km": 569.6301658365546,
      "latitude_deg": -3.3867777579839296e-05,
      "longitude_deg": 3.5756755743966786,
      "height_km": 574.4772151554231,
      "semi_major_axis_km": 6950.209469444117,
      "eccentricity": 0.0003514,
      "inclination_deg": 70.0009,
      "raan_deg": 104.002,
      "arg_perigee_deg": 270.5456,
      "mean_anomaly_deg": 89.53,
      "mean_motion_rev_day": 14.98324639
    },
    {
      "epoch": "2026-04-02T17:57:20.147904Z",
      "apogee_km": 574.5146340474894,
      "perigee_km": 569.6303048407435,
      "latitude_deg": -3.603491647086344e-05,
      "longitude_deg": 3.575771180111709,
      "height_km": 574.4772164795664,
      "semi_major_axis_km": 6950.209469444117,
      "eccentricity": 0.00035138,
      "inclination_deg": 70.0009,
      "raan_deg": 104.0021,
      "arg_perigee_deg": 270.5456,
      "mean_anomaly_deg": 89.53,
      "mean_motion_rev_day": 14.98324639
    },
    {
      "epoch": "2026-04-03T09:58:41.081664Z",
      "apogee_km": 574.741063275459,
      "perigee_km": 569.3656470509686,
      "latitude_deg": 6.15938967572394e-05,
      "longitude_deg": 120.8973627267657,
      "height_km": 574.3539368433054,
      "semi_major_axis_km": 6950.190355163214,
      "eccentricity": 0.00038671,
      "inclination_deg": 69.9997,
      "raan_deg": 102.3189,
      "arg_perigee_deg": 272.7218,
      "mean_anomaly_deg": 87.3499,
      "mean_motion_rev_day": 14.9833082
    },
    {
      "epoch": "2026-04-04T10:00:41.784192Z",
      "apogee_km": 574.7051800953323,
      "perigee_km": 569.328957916794,
      "latitude_deg": -5.588096841778112e-06,
      "longitude_deg": 116.88238882493027,
      "height_km": 574.352594398039,
      "semi_major_axis_km": 6950.154069006063,
      "eccentricity": 0.00038677,
      "inclination_deg": 69.9999,
      "raan_deg": 99.7939,
      "arg_perigee_deg": 271.9768,
      "mean_anomaly_deg": 88.0948,
      "mean_motion_rev_day": 14.98342554
    },
    {
      "epoch": "2026-04-05T10:02:42.158400Z",
      "apogee_km": 574.4103539773369,
      "perigee_km": 569.584597605417,
      "latitude_deg": -3.122741096757734e-05,
      "longitude_deg": 112.87050084427341,
      "height_km": 574.481920733959,
      "semi_major_axis_km": 6950.134475791377,
      "eccentricity": 0.00034717,
      "inclination_deg": 70.0014,
      "raan_deg": 97.2706,
      "arg_perigee_deg": 268.6604,
      "mean_anomaly_deg": 91.4157,
      "mean_motion_rev_day": 14.9834889
    },
    {
      "epoch": "2026-04-06T05:16:18.379488Z",
      "apogee_km": 574.4306906874172,
      "perigee_km": 569.5885235462383,
      "latitude_deg": -1.0255317383341679e-05,
      "longitude_deg": -178.33962801579247,
      "height_km": 574.5207265074805,
      "semi_major_axis_km": 6950.146607116827,
      "eccentricity": 0.00034835,
      "inclination_deg": 70.0014,
      "raan_deg": 95.251,
      "arg_perigee_deg": 268.0336,
      "mean_anomaly_deg": 92.0424,
      "mean_motion_rev_day": 14.98344967
    },
    {
      "epoch": "2026-04-07T10:06:43.330176Z",
      "apogee_km": 574.6021740334581,
      "perigee_km": 569.4464053855263,
      "latitude_deg": -3.22125427393556e-06,
      "longitude_deg": 104.83998259950715,
      "height_km": 574.412413095965,
      "semi_major_axis_km": 6950.161289709492,
      "eccentricity": 0.00037091,
      "inclination_deg": 70.0003,
      "raan_deg": 92.219,
      "arg_perigee_deg": 270.8896,
      "mean_anomaly_deg": 89.1838,
      "mean_motion_rev_day": 14.98340219
    },
    {
      "epoch": "2026-04-07T16:31:15.737376Z",
      "apogee_km": 574.5747986876968,
      "perigee_km": 569.5164557715989,
      "latitude_deg": -1.7582826540243755e-05,
      "longitude_deg": 7.768338258805189,
      "height_km": 574.4004242397598,
      "semi_major_axis_km": 6950.182627229648,
      "eccentricity": 0.0003639,
      "inclination_deg": 70.0011,
      "raan_deg": 91.5456,
      "arg_perigee_deg": 271.6615,
      "mean_anomaly_deg": 88.4127,
      "mean_motion_rev_day": 14.98333319
    },
    {
      "epoch": "2026-04-08T06:56:28.429152Z",
      "apogee_km": 574.6305744279243,
      "perigee_km": 569.4749236720791,
      "latitude_deg": -2.5666571645554102e-05,
      "longitude_deg": 149.35843487732345,
      "height_km": 574.3856207465402,
      "semi_major_axis_km": 6950.189749050001,
      "eccentricity": 0.0003709,
      "inclination_deg": 70.0008,
      "raan_deg": 90.0308,
      "arg_perigee_deg": 272.1185,
      "mean_anomaly_deg": 87.9549,
      "mean_motion_rev_day": 14.98331016
    },
    {
      "epoch": "2026-04-09T08:34:37.544736Z",
      "apogee_km": 574.5868577822393,
      "perigee_km": 569.4998817659935,
      "latitude_deg": 2.8306546888217715e-05,
      "longitude_deg": 121.07444199639157,
      "height_km": 574.4345665414027,
      "semi_major_axis_km": 6950.180369774116,
      "eccentricity": 0.00036596,
      "inclination_deg": 70.0008,
      "raan_deg": 87.3376,
      "arg_perigee_deg": 270.832,
      "mean_anomaly_deg": 89.242,
      "mean_motion_rev_day": 14.98334049
    }
  ]
}